CTC2_L_00472001-01
1 58940U 23551OM  26070.40848380  .00000000  00000+0  00000-0 0  9991
2 58940  82.0000   0.0000 0000000   0.0000   0.0000 15.08756051    17
CTC2_L_00472001-02
1 58941U 22413OM  26070.40848380  .00000000  00000+0  00000-0 0  9998
2 58941  82.0000   0.0000 0000000   0.0000  90.0000 15.08756051    17
CTC2_L_00472001-03
1 58942U 25284X   26070.40848380  .00000000  00000+0  00000-0 0  9998
2 58942  82.0000   0.0000 0000000   0.0000 180.0000 15.08756051    18
CTC2_L_00472001-04
1 58943U 22973UP  26070.40848380  .00000000  00000+0  00000-0 0  9991
2 58943  82.0000   0.0000 0000000   0.0000 270.0000 15.08756051    19
CTC2_L_00472002-01
1 58944U 25481WZ  26070.40848380  .00000000  00000+0  00000-0 0  9999
2 58944  82.0000  12.0000 0000000   0.0000  12.0000 15.08756051    17
CTC2_L_00472002-02
1 58945U 26093ND  26070.40848380  .00000000  00000+0  00000-0 0  9990
2 58945  82.0000  12.0000 0000000   0.0000 102.0000 15.08756051    18
CTC2_L_00472002-03
1 58946U 26104IJ  26070.40848380  .00000000  00000+0  00000-0 0  9994
2 58946  82.0000  12.0000 0000000   0.0000 192.0000 15.08756051    18
CTC2_L_00472002-04
1 58947U 23261IF  26070.40848380  .00000000  00000+0  00000-0 0  9996
2 58947  82.0000  12.0000 0000000   0.0000 282.0000 15.08756051    19
CTC2_L_00472003-01
1 58948U 23621QF  26070.40848380  .00000000  00000+0  00000-0 0  9997
2 58948  82.0000  24.0000 0000000   0.0000  24.0000 15.08756051    17
CTC2_L_00472003-02
1 58949U 26646HJ  26070.40848380  .00000000  00000+0  00000-0 0  9998
2 58949  82.0000  24.0000 0000000   0.0000 114.0000 15.08756051    18
CTC2_L_00472003-03
1 58950U 23213GN  26070.40848380  .00000000  00000+0  00000-0 0  9997
2 58950  82.0000  24.0000 0000000   0.0000 204.0000 15.08756051    10
CTC2_L_00472003-04
1 58951U 23955WY  26070.40848380  .00000000  00000+0  00000-0 0  9991
2 58951  82.0000  24.0000 0000000   0.0000 294.0000 15.08756051    10
CTC2_L_00472004-01
1 58952U 25003AJ  26070.40848380  .00000000  00000+0  00000-0 0  9998
2 58952  82.0000  36.0000 0000000   0.0000  36.0000 15.08756051    18
CTC2_L_00472004-02
1 58953U 25655BM  26070.40848380  .00000000  00000+0  00000-0 0  9992
2 58953  82.0000  36.0000 0000000   0.0000 126.0000 15.08756051    19
CTC2_L_00472004-03
1 58954U 24017IH  26070.40848380  .00000000  00000+0  00000-0 0  9994
2 58954  82.0000  36.0000 0000000   0.0000 216.0000 15.08756051    10
CTC2_L_00472004-04
1 58955U 25702UR  26070.40848380  .00000000  00000+0  00000-0 0  9997
2 58955  82.0000  36.0000 0000000   0.0000 306.0000 15.08756051    11
CTC2_L_00472005-01
1 58956U 24121EI  26070.40848380  .00000000  00000+0  00000-0 0  9992
2 58956  82.0000  48.0000 0000000   0.0000  48.0000 15.08756051    18
CTC2_L_00472005-02
1 58957U 25633DI  26070.40848380  .00000000  00000+0  00000-0 0  9992
2 58957  82.0000  48.0000 0000000   0.0000 138.0000 15.08756051    19
CTC2_L_00472005-03
1 58958U 25886HP  26070.40848380  .00000000  00000+0  00000-0 0  9993
2 58958  82.0000  48.0000 0000000   0.0000 228.0000 15.08756051    10
CTC2_L_00472005-04
1 58959U 23382QY  26070.40848380  .00000000  00000+0  00000-0 0  9993
2 58959  82.0000  48.0000 0000000   0.0000 318.0000 15.08756051    11
CTC2_L_00472006-01
1 58960U 22298DP  26070.40848380  .00000000  00000+0  00000-0 0  9990
2 58960  82.0000  60.0000 0000000   0.0000  60.0000 15.08756051    11
CTC2_L_00472006-02
1 58961U 25534PY  26070.40848380  .00000000  00000+0  00000-0 0  9997
2 58961  82.0000  60.0000 0000000   0.0000 150.0000 15.08756051    12
CTC2_L_00472006-03
1 58962U 26427UY  26070.40848380  .00000000  00000+0  00000-0 0  9990
2 58962  82.0000  60.0000 0000000   0.0000 240.0000 15.08756051    13
CTC2_L_00472006-04
1 58963U 25599QO  26070.40848380  .00000000  00000+0  00000-0 0  9990
2 58963  82.0000  60.0000 0000000   0.0000 330.0000 15.08756051    14
CTC2_L_00472007-01
1 58964U 24558AB  26070.40848380  .00000000  00000+0  00000-0 0  9995
2 58964  82.0000  72.0000 0000000   0.0000  72.0000 15.08756051    11
CTC2_L_00472007-02
1 58965U 24218VK  26070.40848380  .00000000  00000+0  00000-0 0  9999
2 58965  82.0000  72.0000 0000000   0.0000 162.0000 15.08756051    12
CTC2_L_00472007-03
1 58966U 25065CE  26070.40848380  .00000000  00000+0  00000-0 0  9991
2 58966  82.0000  72.0000 0000000   0.0000 252.0000 15.08756051    13
CTC2_L_00472007-04
1 58967U 23086JI  26070.40848380  .00000000  00000+0  00000-0 0  9993
2 58967  82.0000  72.0000 0000000   0.0000 342.0000 15.08756051    14
CTC2_L_00472008-01
1 58968U 24704YM  26070.40848380  .00000000  00000+0  00000-0 0  9992
2 58968  82.0000  84.0000 0000000   0.0000  84.0000 15.08756051    11
CTC2_L_00472008-02
1 58969U 24726DI  26070.40848380  .00000000  00000+0  00000-0 0  9997
2 58969  82.0000  84.0000 0000000   0.0000 174.0000 15.08756051    12
CTC2_L_00472008-03
1 58970U 22817IU  26070.40848380  .00000000  00000+0  00000-0 0  9998
2 58970  82.0000  84.0000 0000000   0.0000 264.0000 15.08756051    14
CTC2_L_00472008-04
1 58971U 24859ND  26070.40848380  .00000000  00000+0  00000-0 0  9997
2 58971  82.0000  84.0000 0000000   0.0000 354.0000 15.08756051    15
CTC2_L_00472009-01
1 58972U 26397KO  26070.40848380  .00000000  00000+0  00000-0 0  9997
2 58972  82.0000  96.0000 0000000   0.0000  96.0000 15.08756051    12
CTC2_L_00472009-02
1 58973U 24549BP  26070.40848380  .00000000  00000+0  00000-0 0  9995
2 58973  82.0000  96.0000 0000000   0.0000 186.0000 15.08756051    13
CTC2_L_00472009-03
1 58974U 24265ZY  26070.40848380  .00000000  00000+0  00000-0 0  9991
2 58974  82.0000  96.0000 0000000   0.0000 276.0000 15.08756051    14
CTC2_L_00472009-04
1 58975U 23588PE  26070.40848380  .00000000  00000+0  00000-0 0  9999
2 58975  82.0000  96.0000 0000000   0.0000   6.0000 15.08756051    16
CTC2_L_00472010-01
1 58976U 25327RZ  26070.40848380  .00000000  00000+0  00000-0 0  9993
2 58976  82.0000 108.0000 0000000   0.0000 108.0000 15.08756051    14
CTC2_L_00472010-02
1 58977U 22555JI  26070.40848380  .00000000  00000+0  00000-0 0  9994
2 58977  82.0000 108.0000 0000000   0.0000 198.0000 15.08756051    14
CTC2_L_00472010-03
1 58978U 25872RZ  26070.40848380  .00000000  00000+0  00000-0 0  9990
2 58978  82.0000 108.0000 0000000   0.0000 288.0000 15.08756051    15
CTC2_L_00472010-04
1 58979U 25977MG  26070.40848380  .00000000  00000+0  00000-0 0  9997
2 58979  82.0000 108.0000 0000000   0.0000  18.0000 15.08756051    17
CTC2_L_00472011-01
1 58980U 23286JI  26070.40848380  .00000000  00000+0  00000-0 0  9990
2 58980  82.0000 120.0000 0000000   0.0000 120.0000 15.08756051    17
CTC2_L_00472011-02
1 58981U 24904FL  26070.40848380  .00000000  00000+0  00000-0 0  9999
2 58981  82.0000 120.0000 0000000   0.0000 210.0000 15.08756051    18
CTC2_L_00472011-03
1 58982U 25010YV  26070.40848380  .00000000  00000+0  00000-0 0  9999
2 58982  82.0000 120.0000 0000000   0.0000 300.0000 15.08756051    19
CTC2_L_00472011-04
1 58983U 26758BD  26070.40848380  .00000000  00000+0  00000-0 0  9990
2 58983  82.0000 120.0000 0000000   0.0000  30.0000 15.08756051    10
CTC2_L_00472012-01
1 58984U 24103MO  26070.40848380  .00000000  00000+0  00000-0 0  9993
2 58984  82.0000 132.0000 0000000   0.0000 132.0000 15.08756051    17
CTC2_L_00472012-02
1 58985U 25715DB  26070.40848380  .00000000  00000+0  00000-0 0  9994
2 58985  82.0000 132.0000 0000000   0.0000 222.0000 15.08756051    18
CTC2_L_00472012-03
1 58986U 26671SO  26070.40848380  .00000000  00000+0  00000-0 0  9997
2 58986  82.0000 132.0000 0000000   0.0000 312.0000 15.08756051    19
CTC2_L_00472012-04
1 58987U 25412XL  26070.40848380  .00000000  00000+0  00000-0 0  9990
2 58987  82.0000 132.0000 0000000   0.0000  42.0000 15.08756051    10
CTC2_L_00472013-01
1 58988U 25648KK  26070.40848380  .00000000  00000+0  00000-0 0  9992
2 58988  82.0000 144.0000 0000000   0.0000 144.0000 15.08756051    17
CTC2_L_00472013-02
1 58989U 23603KK  26070.40848380  .00000000  00000+0  00000-0 0  9992
2 58989  82.0000 144.0000 0000000   0.0000 234.0000 15.08756051    18
CTC2_L_00472013-03
1 58990U 25177CY  26070.40848380  .00000000  00000+0  00000-0 0  9992
2 58990  82.0000 144.0000 0000000   0.0000 324.0000 15.08756051    10
CTC2_L_00472013-04
1 58991U 24670VB  26070.40848380  .00000000  00000+0  00000-0 0  9990
2 58991  82.0000 144.0000 0000000   0.0000  54.0000 15.08756051    11
CTC2_L_00472014-01
1 58992U 23401AH  26070.40848380  .00000000  00000+0  00000-0 0  9992
2 58992  82.0000 156.0000 0000000   0.0000 156.0000 15.08756051    18
CTC2_L_00472014-02
1 58993U 23102SV  26070.40848380  .00000000  00000+0  00000-0 0  9991
2 58993  82.0000 156.0000 0000000   0.0000 246.0000 15.08756051    19
CTC2_L_00472014-03
1 58994U 23670CY  26070.40848380  .00000000  00000+0  00000-0 0  9992
2 58994  82.0000 156.0000 0000000   0.0000 336.0000 15.08756051    10
CTC2_L_00472014-04
1 58995U 24779KS  26070.40848380  .00000000  00000+0  00000-0 0  9994
2 58995  82.0000 156.0000 0000000   0.0000  66.0000 15.08756051    11
CTC2_L_00472015-01
1 58996U 24830BZ  26070.40848380  .00000000  00000+0  00000-0 0  9993
2 58996  82.0000 168.0000 0000000   0.0000 168.0000 15.08756051    18
CTC2_L_00472015-02
1 58997U 26603VD  26070.40848380  .00000000  00000+0  00000-0 0  9994
2 58997  82.0000 168.0000 0000000   0.0000 258.0000 15.08756051    19
CTC2_L_00472015-03
1 58998U 22593OX  26070.40848380  .00000000  00000+0  00000-0 0  9999
2 58998  82.0000 168.0000 0000000   0.0000 348.0000 15.08756051    10
CTC2_L_00472015-04
1 58999U 26799CW  26070.40848380  .00000000  00000+0  00000-0 0  9992
2 58999  82.0000 168.0000 0000000   0.0000  78.0000 15.08756051    11
CTC2_L_00472016-01
1 59000U 26392IE  26070.40848380  .00000000  00000+0  00000-0 0  9995
2 59000  82.0000 180.0000 0000000   0.0000 180.0000 15.08756051    13
CTC2_L_00472016-02
1 59001U 26669UH  26070.40848380  .00000000  00000+0  00000-0 0  9993
2 59001  82.0000 180.0000 0000000   0.0000 270.0000 15.08756051    14
